<?xml version="1.0" encoding="UTF-8"?>
<ndm xmlns:xsi="http://www.w3.org/2001/XMLSchema-instance" xsi:noNamespaceSchemaLocation="https://sanaregistry.org/r/ndmxml_unqualified/ndmxml-2.0.0-master-2.0.xsd">
<omm id="CCSDS_OMM_VERS" version="2.0">
<header><CREATION_DATE/><ORIGINATOR/></header><body><segment><metadata><OBJECT_NAME>GLOBALSTAR M023</OBJECT_NAME><OBJECT_ID>1999-004A</OBJECT_ID><CENTER_NAME>EARTH</CENTER_NAME><REF_FRAME>TEME</REF_FRAME><TIME_SYSTEM>UTC</TIME_SYSTEM><MEAN_ELEMENT_THEORY>SGP4</MEAN_ELEMENT_THEORY></metadata><data><meanElements><EPOCH>2025-12-03T03:53:41.112096</EPOCH><MEAN_MOTION>12.62509577</MEAN_MOTION><ECCENTRICITY>.0010187</ECCENTRICITY><INCLINATION>52.0112</INCLINATION><RA_OF_ASC_NODE>258.9050</RA_OF_ASC_NODE><ARG_OF_PERICENTER>136.7735</ARG_OF_PERICENTER><MEAN_ANOMALY>3.1193</MEAN_ANOMALY></meanElements><tleParameters><EPHEMERIS_TYPE>0</EPHEMERIS_TYPE><CLASSIFICATION_TYPE>U</CLASSIFICATION_TYPE><NORAD_CAT_ID>25621</NORAD_CAT_ID><ELEMENT_SET_NO>999</ELEMENT_SET_NO><REV_AT_EPOCH>23707</REV_AT_EPOCH><BSTAR>-.64079543E-4</BSTAR><MEAN_MOTION_DOT>-.115E-5</MEAN_MOTION_DOT><MEAN_MOTION_DDOT>0</MEAN_MOTION_DDOT></tleParameters></data></segment></body></omm>
<omm id="CCSDS_OMM_VERS" version="2.0">
<header><CREATION_DATE/><ORIGINATOR/></header><body><segment><metadata><OBJECT_NAME>GLOBALSTAR M040</OBJECT_NAME><OBJECT_ID>1999-004B</OBJECT_ID><CENTER_NAME>EARTH</CENTER_NAME><REF_FRAME>TEME</REF_FRAME><TIME_SYSTEM>UTC</TIME_SYSTEM><MEAN_ELEMENT_THEORY>SGP4</MEAN_ELEMENT_THEORY></metadata><data><meanElements><EPOCH>2025-12-03T12:38:42.502848</EPOCH><MEAN_MOTION>12.62024437</MEAN_MOTION><ECCENTRICITY>.0001585</ECCENTRICITY><INCLINATION>51.9918</INCLINATION><RA_OF_ASC_NODE>262.1991</RA_OF_ASC_NODE><ARG_OF_PERICENTER>48.3757</ARG_OF_PERICENTER><MEAN_ANOMALY>123.5406</MEAN_ANOMALY></meanElements><tleParameters><EPHEMERIS_TYPE>0</EPHEMERIS_TYPE><CLASSIFICATION_TYPE>U</CLASSIFICATION_TYPE><NORAD_CAT_ID>25622</NORAD_CAT_ID><ELEMENT_SET_NO>999</ELEMENT_SET_NO><REV_AT_EPOCH>23663</REV_AT_EPOCH><BSTAR>.38873E-3</BSTAR><MEAN_MOTION_DOT>-.34E-6</MEAN_MOTION_DOT><MEAN_MOTION_DDOT>0</MEAN_MOTION_DDOT></tleParameters></data></segment></body></omm>
<omm id="CCSDS_OMM_VERS" version="2.0">
<header><CREATION_DATE/><ORIGINATOR/></header><body><segment><metadata><OBJECT_NAME>GLOBALSTAR M036</OBJECT_NAME><OBJECT_ID>1999-004C</OBJECT_ID><CENTER_NAME>EARTH</CENTER_NAME><REF_FRAME>TEME</REF_FRAME><TIME_SYSTEM>UTC</TIME_SYSTEM><MEAN_ELEMENT_THEORY>SGP4</MEAN_ELEMENT_THEORY></metadata><data><meanElements><EPOCH>2025-12-03T12:26:16.069920</EPOCH><MEAN_MOTION>11.86618158</MEAN_MOTION><ECCENTRICITY>.0010898</ECCENTRICITY><INCLINATION>51.9936</INCLINATION><RA_OF_ASC_NODE>153.9934</RA_OF_ASC_NODE><ARG_OF_PERICENTER>20.4323</ARG_OF_PERICENTER><MEAN_ANOMALY>13.3284</MEAN_ANOMALY></meanElements><tleParameters><EPHEMERIS_TYPE>0</EPHEMERIS_TYPE><CLASSIFICATION_TYPE>U</CLASSIFICATION_TYPE><NORAD_CAT_ID>25623</NORAD_CAT_ID><ELEMENT_SET_NO>999</ELEMENT_SET_NO><REV_AT_EPOCH>19908</REV_AT_EPOCH><BSTAR>.36286E-3</BSTAR><MEAN_MOTION_DOT>-.58E-6</MEAN_MOTION_DOT><MEAN_MOTION_DDOT>0</MEAN_MOTION_DDOT></tleParameters></data></segment></body></omm>
<omm id="CCSDS_OMM_VERS" version="2.0">
<header><CREATION_DATE/><ORIGINATOR/></header><body><segment><metadata><OBJECT_NAME>GLOBALSTAR M038</OBJECT_NAME><OBJECT_ID>1999-004D</OBJECT_ID><CENTER_NAME>EARTH</CENTER_NAME><REF_FRAME>TEME</REF_FRAME><TIME_SYSTEM>UTC</TIME_SYSTEM><MEAN_ELEMENT_THEORY>SGP4</MEAN_ELEMENT_THEORY></metadata><data><meanElements><EPOCH>2025-12-03T06:41:11.827104</EPOCH><MEAN_MOTION>12.32536753</MEAN_MOTION><ECCENTRICITY>.0002258</ECCENTRICITY><INCLINATION>51.9990</INCLINATION><RA_OF_ASC_NODE>304.6038</RA_OF_ASC_NODE><ARG_OF_PERICENTER>44.9924</ARG_OF_PERICENTER><MEAN_ANOMALY>93.6097</MEAN_ANOMALY></meanElements><tleParameters><EPHEMERIS_TYPE>0</EPHEMERIS_TYPE><CLASSIFICATION_TYPE>U</CLASSIFICATION_TYPE><NORAD_CAT_ID>25624</NORAD_CAT_ID><ELEMENT_SET_NO>999</ELEMENT_SET_NO><REV_AT_EPOCH>22322</REV_AT_EPOCH><BSTAR>.2078E-3</BSTAR><MEAN_MOTION_DOT>-.7E-6</MEAN_MOTION_DOT><MEAN_MOTION_DDOT>0</MEAN_MOTION_DDOT></tleParameters></data></segment></body></omm>
<omm id="CCSDS_OMM_VERS" version="2.0">
<header><CREATION_DATE/><ORIGINATOR/></header><body><segment><metadata><OBJECT_NAME>GLOBALSTAR M022</OBJECT_NAME><OBJECT_ID>1999-012A</OBJECT_ID><CENTER_NAME>EARTH</CENTER_NAME><REF_FRAME>TEME</REF_FRAME><TIME_SYSTEM>UTC</TIME_SYSTEM><MEAN_ELEMENT_THEORY>SGP4</MEAN_ELEMENT_THEORY></metadata><data><meanElements><EPOCH>2025-12-03T08:03:47.024352</EPOCH><MEAN_MOTION>12.02507535</MEAN_MOTION><ECCENTRICITY>.0003273</ECCENTRICITY><INCLINATION>52.0011</INCLINATION><RA_OF_ASC_NODE>191.0756</RA_OF_ASC_NODE><ARG_OF_PERICENTER>127.5780</ARG_OF_PERICENTER><MEAN_ANOMALY>43.7924</MEAN_ANOMALY></meanElements><tleParameters><EPHEMERIS_TYPE>0</EPHEMERIS_TYPE><CLASSIFICATION_TYPE>U</CLASSIFICATION_TYPE><NORAD_CAT_ID>25649</NORAD_CAT_ID><ELEMENT_SET_NO>999</ELEMENT_SET_NO><REV_AT_EPOCH>19672</REV_AT_EPOCH><BSTAR>.65225E-3</BSTAR><MEAN_MOTION_DOT>-.33E-6</MEAN_MOTION_DOT><MEAN_MOTION_DDOT>0</MEAN_MOTION_DDOT></tleParameters></data></segment></body></omm>
<omm id="CCSDS_OMM_VERS" version="2.0">
<header><CREATION_DATE/><ORIGINATOR/></header><body><segment><metadata><OBJECT_NAME>GLOBALSTAR M041</OBJECT_NAME><OBJECT_ID>1999-012B</OBJECT_ID><CENTER_NAME>EARTH</CENTER_NAME><REF_FRAME>TEME</REF_FRAME><TIME_SYSTEM>UTC</TIME_SYSTEM><MEAN_ELEMENT_THEORY>SGP4</MEAN_ELEMENT_THEORY></metadata><data><meanElements><EPOCH>2025-12-03T12:38:17.120256</EPOCH><MEAN_MOTION>11.96681135</MEAN_MOTION><ECCENTRICITY>.0000502</ECCENTRICITY><INCLINATION>52.0026</INCLINATION><RA_OF_ASC_NODE>77.1685</RA_OF_ASC_NODE><ARG_OF_PERICENTER>289.5059</ARG_OF_PERICENTER><MEAN_ANOMALY>70.5723</MEAN_ANOMALY></meanElements><tleParameters><EPHEMERIS_TYPE>0</EPHEMERIS_TYPE><CLASSIFICATION_TYPE>U</CLASSIFICATION_TYPE><NORAD_CAT_ID>25650</NORAD_CAT_ID><ELEMENT_SET_NO>999</ELEMENT_SET_NO><REV_AT_EPOCH>19855</REV_AT_EPOCH><BSTAR>-.10205E-3</BSTAR><MEAN_MOTION_DOT>-.93E-6</MEAN_MOTION_DOT><MEAN_MOTION_DDOT>0</MEAN_MOTION_DDOT></tleParameters></data></segment></body></omm>
<omm id="CCSDS_OMM_VERS" version="2.0">
<header><CREATION_DATE/><ORIGINATOR/></header><body><segment><metadata><OBJECT_NAME>GLOBALSTAR M046</OBJECT_NAME><OBJECT_ID>1999-012C</OBJECT_ID><CENTER_NAME>EARTH</CENTER_NAME><REF_FRAME>TEME</REF_FRAME><TIME_SYSTEM>UTC</TIME_SYSTEM><MEAN_ELEMENT_THEORY>SGP4</MEAN_ELEMENT_THEORY></metadata><data><meanElements><EPOCH>2025-12-03T10:21:20.963232</EPOCH><MEAN_MOTION>12.09418469</MEAN_MOTION><ECCENTRICITY>.0001524</ECCENTRICITY><INCLINATION>52.0033</INCLINATION><RA_OF_ASC_NODE>134.7705</RA_OF_ASC_NODE><ARG_OF_PERICENTER>197.2722</ARG_OF_PERICENTER><MEAN_ANOMALY>188.1480</MEAN_ANOMALY></meanElements><tleParameters><EPHEMERIS_TYPE>0</EPHEMERIS_TYPE><CLASSIFICATION_TYPE>U</CLASSIFICATION_TYPE><NORAD_CAT_ID>25651</NORAD_CAT_ID><ELEMENT_SET_NO>999</ELEMENT_SET_NO><REV_AT_EPOCH>20414</REV_AT_EPOCH><BSTAR>.5211E-3</BSTAR><MEAN_MOTION_DOT>-.41E-6</MEAN_MOTION_DOT><MEAN_MOTION_DDOT>0</MEAN_MOTION_DDOT></tleParameters></data></segment></body></omm>
<omm id="CCSDS_OMM_VERS" version="2.0">
<header><CREATION_DATE/><ORIGINATOR/></header><body><segment><metadata><OBJECT_NAME>GLOBALSTAR M037</OBJECT_NAME><OBJECT_ID>1999-012D</OBJECT_ID><CENTER_NAME>EARTH</CENTER_NAME><REF_FRAME>TEME</REF_FRAME><TIME_SYSTEM>UTC</TIME_SYSTEM><MEAN_ELEMENT_THEORY>SGP4</MEAN_ELEMENT_THEORY></metadata><data><meanElements><EPOCH>2025-12-03T10:29:40.218720</EPOCH><MEAN_MOTION>12.62457055</MEAN_MOTION><ECCENTRICITY>.0002141</ECCENTRICITY><INCLINATION>52.0026</INCLINATION><RA_OF_ASC_NODE>28.6224</RA_OF_ASC_NODE><ARG_OF_PERICENTER>190.8766</ARG_OF_PERICENTER><MEAN_ANOMALY>182.7023</MEAN_ANOMALY></meanElements><tleParameters><EPHEMERIS_TYPE>0</EPHEMERIS_TYPE><CLASSIFICATION_TYPE>U</CLASSIFICATION_TYPE><NORAD_CAT_ID>25652</NORAD_CAT_ID><ELEMENT_SET_NO>999</ELEMENT_SET_NO><REV_AT_EPOCH>23265</REV_AT_EPOCH><BSTAR>.15542E-3</BSTAR><MEAN_MOTION_DOT>-.76E-6</MEAN_MOTION_DOT><MEAN_MOTION_DDOT>0</MEAN_MOTION_DDOT></tleParameters></data></segment></body></omm>

</ndm>
