GLOBALSTAR M023         
1 25621U 99004A   25337.16228139 -.00000115  00000+0 -64080-4 0  9990
2 25621  52.0112 258.9050 0010187 136.7735   3.1193 12.62509577237077
GLOBALSTAR M040         
1 25622U 99004B   25337.52688082 -.00000034  00000+0  38873-3 0  9997
2 25622  51.9918 262.1991 0001585  48.3757 123.5406 12.62024437236637
GLOBALSTAR M036         
1 25623U 99004C   25337.51824155 -.00000058  00000+0  36286-3 0  9992
2 25623  51.9936 153.9934 0010898  20.4323  13.3284 11.86618158199080
GLOBALSTAR M038         
1 25624U 99004D   25337.27860911 -.00000070  00000+0  20780-3 0  9992
2 25624  51.9990 304.6038 0002258  44.9924  93.6097 12.32536753223229
GLOBALSTAR M022         
1 25649U 99012A   25337.33596093 -.00000033  00000+0  65225-3 0  9994
2 25649  52.0011 191.0756 0003273 127.5780  43.7924 12.02507535196725
GLOBALSTAR M041         
1 25650U 99012B   25337.52658704 -.00000093  00000+0 -10205-3 0  9990
2 25650  52.0026  77.1685 0000502 289.5059  70.5723 11.96681135198557
GLOBALSTAR M046         
1 25651U 99012C   25337.43149263 -.00000041  00000+0  52110-3 0  9999
2 25651  52.0033 134.7705 0001524 197.2722 188.1480 12.09418469204148
GLOBALSTAR M037         
1 25652U 99012D   25337.43727105 -.00000076  00000+0  15542-3 0  9993
2 25652  52.0026  28.6224 0002141 190.8766 182.7023 12.62457055232654
